ONEWEB-0549             
1 56051U 23043F   25171.33626694  .00000040  00000+0  65479-4 0  9992
2 56051  87.9263 316.1587 0002234  99.7661 260.3726 13.21826303110427
ONEWEB-0550             
1 56052U 23043G   25171.62644044  .00000031  00000+0  42631-4 0  9999
2 56052  87.9261 316.0957 0001705  98.0913 262.0414 13.21825902110461
ONEWEB-0551             
1 56053U 23043H   25171.42658490  .00000110  00000+0  25751-3 0  9999
2 56053  87.9053 331.3540 0002040  99.3765 260.7596 13.15548061108836
ONEWEB-0552             
1 56054U 23043J   25171.39303030  .00000029  00000+0  39665-4 0  9992
2 56054  87.9261 316.1510 0002008 105.8965 254.2390 13.21824200110433
ONEWEB-0553             
1 56055U 23043K   25171.28440624  .00000051  00000+0  99240-4 0  9992
2 56055  87.9046 300.9074 0001716  89.0528 271.0800 13.16593770111358
ONEWEB-0554             
1 56056U 23043L   25171.34772972  .00000090  00000+0  20225-3 0  9993
2 56056  87.9043 300.9227 0001642 103.3087 256.8227 13.16593336111345
ONEWEB-0555             
1 56057U 23043M   25171.61372158  .00000105  00000+0  24202-3 0  9992
2 56057  87.9045 300.8355 0001685  82.8424 277.2898 13.16594578111386
ONEWEB-0557             
1 56058U 23043N   25171.32398617 -.00000024  00000+0 -96593-4 0  9994
2 56058  87.9041 300.9158 0000590  84.0499 276.0699 13.16593854111343
